{
    "links": {
        "self": "http://www.neowsapp.com/rest/v1/neo/3647014?api_key=iIulBulltgU6a56xZRHN4H3l9WmuAYTsLGpBGhQ2"
    },
    "id": "3647014",
    "neo_reference_id": "3647014",
    "name": "(2013 RQ5)",
    "designation": "2013 RQ5",
    "nasa_jpl_url": "http://ssd.jpl.nasa.gov/sbdb.cgi?sstr=3647014",
    "absolute_magnitude_h": 26.0,
    "estimated_diameter": {
        "kilometers": {
            "estimated_diameter_min": 0.0167708462,
            "estimated_diameter_max": 0.0375007522
        },
        "meters": {
            "estimated_diameter_min": 16.7708462163,
            "estimated_diameter_max": 37.5007521798
        },
        "miles": {
            "estimated_diameter_min": 0.0104209175,
            "estimated_diameter_max": 0.0233018799
        },
        "feet": {
            "estimated_diameter_min": 55.0224631002,
            "estimated_diameter_max": 123.0339677816
        }
    },
    "is_potentially_hazardous_asteroid": false,
    "close_approach_data": [
        {
            "close_approach_date": "2013-09-06",
            "close_approach_date_full": "2013-Sep-06 06:41",
            "epoch_date_close_approach": 1378449660000,
            "relative_velocity": {
                "kilometers_per_second": "22.7631085485",
                "kilometers_per_hour": "81947.1907746619",
                "miles_per_hour": "50918.7975121781"
            },
            "miss_distance": {
                "astronomical": "0.0122742587",
                "lunar": "4.7746866343",
                "kilometers": "1836202.957348969",
                "miles": "1140963.6105110122"
            },
            "orbiting_body": "Earth"
        },
        {
            "close_approach_date": "2140-12-02",
            "close_approach_date_full": "2140-Dec-02 11:32",
            "epoch_date_close_approach": 5393734320000,
            "relative_velocity": {
                "kilometers_per_second": "19.5084906035",
                "kilometers_per_hour": "70230.5661727786",
                "miles_per_hour": "43638.5426310801"
            },
            "miss_distance": {
                "astronomical": "0.0991694444",
                "lunar": "38.5769138716",
                "kilometers": "14835537.651323428",
                "miles": "9218375.6347741864"
            },
            "orbiting_body": "Mars"
        },
        {
            "close_approach_date": "2141-04-03",
            "close_approach_date_full": "2141-Apr-03 11:46",
            "epoch_date_close_approach": 5404275960000,
            "relative_velocity": {
                "kilometers_per_second": "31.7378333722",
                "kilometers_per_hour": "114256.20013988",
                "miles_per_hour": "70994.3594702494"
            },
            "miss_distance": {
                "astronomical": "0.2991115451",
                "lunar": "116.3543910439",
                "kilometers": "44746450.039368937",
                "miles": "27804154.7586758506"
            },
            "orbiting_body": "Earth"
        },
        {
            "close_approach_date": "2164-09-09",
            "close_approach_date_full": "2164-Sep-09 10:11",
            "epoch_date_close_approach": 6143854260000,
            "relative_velocity": {
                "kilometers_per_second": "21.5156393806",
                "kilometers_per_hour": "77456.3017702374",
                "miles_per_hour": "48128.3337305122"
            },
            "miss_distance": {
                "astronomical": "0.0433032955",
                "lunar": "16.8449819495",
                "kilometers": "6478080.770780585",
                "miles": "4025292.735658673"
            },
            "orbiting_body": "Earth"
        },
        {
            "close_approach_date": "2167-08-30",
            "close_approach_date_full": "2167-Aug-30 05:51",
            "epoch_date_close_approach": 6237582660000,
            "relative_velocity": {
                "kilometers_per_second": "27.5513936141",
                "kilometers_per_hour": "99185.0170108745",
                "miles_per_hour": "61629.7123754514"
            },
            "miss_distance": {
                "astronomical": "0.1608415651",
                "lunar": "62.5673688239",
                "kilometers": "24061555.546426337",
                "miles": "14951157.3221719706"
            },
            "orbiting_body": "Earth"
        }
    ],
    "orbital_data": {
        "orbit_id": "5",
        "orbit_determination_date": "2017-04-06 08:44:57",
        "first_observation_date": "2013-09-01",
        "last_observation_date": "2013-09-05",
        "data_arc_in_days": 4,
        "observations_used": 33,
        "orbit_uncertainty": "8",
        "minimum_orbit_intersection": ".00137216",
        "jupiter_tisserand_invariant": "3.357",
        "epoch_osculation": "2456537.5",
        "eccentricity": ".7424010601485501",
        "semi_major_axis": "2.071807670711158",
        "inclination": ".6493558479111134",
        "ascending_node_longitude": "337.3600017913554",
        "orbital_period": "1089.237492924977",
        "perihelion_distance": ".533695459551296",
        "perihelion_argument": "102.9317102024172",
        "aphelion_distance": "3.60991988187102",
        "perihelion_time": "2456588.683870307310",
        "mean_anomaly": "343.0834015260061",
        "mean_motion": ".3305064343986878",
        "equinox": "J2000",
        "orbit_class": {
            "orbit_class_type": "APO",
            "orbit_class_description": "Near-Earth asteroid orbits which cross the Earth’s orbit similar to that of 1862 Apollo",
            "orbit_class_range": "a (semi-major axis) > 1.0 AU; q (perihelion) < 1.017 AU"
        }
    },
    "is_sentry_object": false
}